<?xml version="1.0" encoding="UTF-8"?>
<databrowser>
  <title></title>
  <show_toolbar>true</show_toolbar>
  <update_period>3.0</update_period>
  <scroll_step>5</scroll_step>
  <scroll>true</scroll>
  <start>-55 minutes</start>
  <end>now</end>
  <archive_rescale>STAGGER</archive_rescale>
  <foreground>
    <red>0</red>
    <green>0</green>
    <blue>0</blue>
  </foreground>
  <background>
    <red>255</red>
    <green>255</green>
    <blue>255</blue>
  </background>
  <title_font>Liberation Sans|20|1</title_font>
  <label_font>Liberation Sans|14|1</label_font>
  <scale_font>Liberation Sans|12|0</scale_font>
  <legend_font>Liberation Sans|14|0</legend_font>
  <axes>
    <axis>
      <visible>true</visible>
      <name>Pres (Bar)</name>
      <use_axis_name>true</use_axis_name>
      <use_trace_names>true</use_trace_names>
      <right>false</right>
      <color>
        <red>0</red>
        <green>0</green>
        <blue>0</blue>
      </color>
      <min>-17.5</min>
      <max>31.1</max>
      <grid>false</grid>
      <autoscale>false</autoscale>
      <log_scale>false</log_scale>
    </axis>
    <axis>
      <visible>true</visible>
      <name>Temp (deg)</name>
      <use_axis_name>true</use_axis_name>
      <use_trace_names>true</use_trace_names>
      <right>true</right>
      <color>
        <red>0</red>
        <green>0</green>
        <blue>0</blue>
      </color>
      <min>-1.2595030632318434</min>
      <max>69.90644893676816</max>
      <grid>false</grid>
      <autoscale>false</autoscale>
      <log_scale>false</log_scale>
    </axis>
  </axes>
  <annotations>
  </annotations>
  <pvlist>
    <pv>
      <display_name>DQ:CHL:Pref_hp</display_name>
      <visible>true</visible>
      <name>DQ:CHL:Pref_hp</name>
      <axis>0</axis>
      <color>
        <red>255</red>
        <green>0</green>
        <blue>0</blue>
      </color>
      <trace_type>SINGLE_LINE</trace_type>
      <linewidth>2</linewidth>
      <line_style>SOLID</line_style>
      <point_type>NONE</point_type>
      <point_size>2</point_size>
      <waveform_index>0</waveform_index>
      <period>0.0</period>
      <ring_size>5000</ring_size>
      <request>OPTIMIZED</request>
      <archive>
        <name>Archiver</name>
        <url>jdbc:postgresql://localhost:5432/archive</url>
        <key>1</key>
      </archive>
    </pv>
    <pv>
      <display_name>DQ:CHL:Pref_lp</display_name>
      <visible>true</visible>
      <name>DQ:CHL:Pref_lp</name>
      <axis>0</axis>
      <color>
        <red>0</red>
        <green>255</green>
        <blue>0</blue>
      </color>
      <trace_type>SINGLE_LINE</trace_type>
      <linewidth>2</linewidth>
      <line_style>SOLID</line_style>
      <point_type>NONE</point_type>
      <point_size>2</point_size>
      <waveform_index>0</waveform_index>
      <period>0.0</period>
      <ring_size>5000</ring_size>
      <request>OPTIMIZED</request>
      <archive>
        <name>Archiver</name>
        <url>jdbc:postgresql://localhost:5432/archive</url>
        <key>1</key>
      </archive>
    </pv>
    <pv>
      <display_name>DQ:CHL:Tout</display_name>
      <visible>true</visible>
      <name>DQ:CHL:Tout</name>
      <axis>1</axis>
      <color>
        <red>0</red>
        <green>0</green>
        <blue>255</blue>
      </color>
      <trace_type>SINGLE_LINE</trace_type>
      <linewidth>2</linewidth>
      <line_style>SOLID</line_style>
      <point_type>NONE</point_type>
      <point_size>2</point_size>
      <waveform_index>0</waveform_index>
      <period>0.0</period>
      <ring_size>5000</ring_size>
      <request>OPTIMIZED</request>
      <archive>
        <name>Archiver</name>
        <url>jdbc:postgresql://localhost:5432/archive</url>
        <key>1</key>
      </archive>
    </pv>
    <pv>
      <display_name>DQ:CHL:Tevap</display_name>
      <visible>true</visible>
      <name>DQ:CHL:Tevap</name>
      <axis>1</axis>
      <color>
        <red>255</red>
        <green>127</green>
        <blue>0</blue>
      </color>
      <trace_type>SINGLE_LINE</trace_type>
      <linewidth>2</linewidth>
      <line_style>SOLID</line_style>
      <point_type>NONE</point_type>
      <point_size>2</point_size>
      <waveform_index>0</waveform_index>
      <period>0.0</period>
      <ring_size>5000</ring_size>
      <request>OPTIMIZED</request>
      <archive>
        <name>Archiver</name>
        <url>jdbc:postgresql://localhost:5432/archive</url>
        <key>1</key>
      </archive>
    </pv>
    <pv>
      <display_name>DQ:CHL:TexpV</display_name>
      <visible>true</visible>
      <name>DQ:CHL:TexpV</name>
      <axis>1</axis>
      <color>
        <red>0</red>
        <green>255</green>
        <blue>127</blue>
      </color>
      <trace_type>SINGLE_LINE</trace_type>
      <linewidth>2</linewidth>
      <line_style>SOLID</line_style>
      <point_type>NONE</point_type>
      <point_size>2</point_size>
      <waveform_index>0</waveform_index>
      <period>0.0</period>
      <ring_size>5000</ring_size>
      <request>OPTIMIZED</request>
      <archive>
        <name>Archiver</name>
        <url>jdbc:postgresql://localhost:5432/archive</url>
        <key>1</key>
      </archive>
    </pv>
    <pv>
      <display_name>DQ:CHL:ChSetPointRB</display_name>
      <visible>true</visible>
      <name>DQ:CHL:ChSetPointRB</name>
      <axis>1</axis>
      <color>
        <red>127</red>
        <green>0</green>
        <blue>255</blue>
      </color>
      <trace_type>SINGLE_LINE</trace_type>
      <linewidth>2</linewidth>
      <line_style>SOLID</line_style>
      <point_type>NONE</point_type>
      <point_size>2</point_size>
      <waveform_index>0</waveform_index>
      <period>0.0</period>
      <ring_size>5000</ring_size>
      <request>OPTIMIZED</request>
    </pv>
  </pvlist>
</databrowser>
